{
  "type": "FeatureCollection",
  "features": [
    {
      "type": "Feature",
      "properties": {
        "norad_id": 66653,
        "name": "2025-274D",
        "group": "last-30-days",
        "lat": 8.24104644140406,
        "lon": 87.66035992940749,
        "alt_km": 596.9352679180647,
        "timestamp": "2025-12-05T04:52:14.143477+00:00",
        "meta_object_name": "2025-274D",
        "meta_object_id": "2025-274D",
        "meta_epoch": "2025-12-04T07:10:34.660128",
        "meta_mean_motion": 14.91841883,
        "meta_eccentricity": 0.0011227,
        "meta_inclination": 97.7384,
        "meta_ra_of_asc_node": 265.6445,
        "meta_arg_of_pericenter": 286.1132,
        "meta_mean_anomaly": 73.8851,
        "meta_ephemeris_type": 0,
        "meta_classification_type": "U",
        "meta_norad_cat_id": 66653,
        "meta_element_set_no": 999,
        "meta_rev_at_epoch": 114,
        "meta_bstar": 0.00052688,
        "meta_mean_motion_dot": 5.271e-05,
        "meta_mean_motion_ddot": 0,
        "tle_line1": "1 66653U 25274D   25338.29901227  .00005271  00000+0  52688-3 0  9995",
        "tle_line2": "2 66653  97.7384 265.6445 0011227 286.1132  73.8851 14.91841883  1149"
      },
      "geometry": {
        "type": "Point",
        "coordinates": [
          87.66035992940749,
          8.24104644140406
        ]
      }
    },
    {
      "type": "Feature",
      "properties": {
        "norad_id": 66654,
        "name": "JACK E",
        "group": "last-30-days",
        "lat": 3.318164229141716,
        "lon": 86.98608504259086,
        "alt_km": 596.7757188689802,
        "timestamp": "2025-12-05T04:52:14.143485+00:00",
        "meta_object_name": "JACK E",
        "meta_object_id": "2025-274E",
        "meta_epoch": "2025-12-04T16:48:49.800096",
        "meta_mean_motion": 14.92014463,
        "meta_eccentricity": 0.0011819,
        "meta_inclination": 97.739,
        "meta_ra_of_asc_node": 266.041,
        "meta_arg_of_pericenter": 286.2299,
        "meta_mean_anomaly": 73.7619,
        "meta_ephemeris_type": 0,
        "meta_classification_type": "U",
        "meta_norad_cat_id": 66654,
        "meta_element_set_no": 999,
        "meta_rev_at_epoch": 120,
        "meta_bstar": 0.00063009,
        "meta_mean_motion_dot": 6.344e-05,
        "meta_mean_motion_ddot": 0,
        "tle_line1": "1 66654U 25274E   25338.70057639  .00006344  00000+0  63009-3 0  9992",
        "tle_line2": "2 66654  97.7390 266.0410 0011819 286.2299  73.7619 14.92014463  1201"
      },
      "geometry": {
        "type": "Point",
        "coordinates": [
          86.98608504259086,
          3.318164229141716
        ]
      }
    },
    {
      "type": "Feature",
      "properties": {
        "norad_id": 66655,
        "name": "2025-274F",
        "group": "last-30-days",
        "lat": -1.519243429138151,
        "lon": 86.329196406502,
        "alt_km": 597.7860064456172,
        "timestamp": "2025-12-05T04:52:14.143496+00:00",
        "meta_object_name": "2025-274F",
        "meta_object_id": "2025-274F",
        "meta_epoch": "2025-12-04T05:31:45.048000",
        "meta_mean_motion": 14.92233374,
        "meta_eccentricity": 0.0007809,
        "meta_inclination": 97.7363,
        "meta_ra_of_asc_node": 265.5807,
        "meta_arg_of_pericenter": 316.271,
        "meta_mean_anomaly": 43.7889,
        "meta_ephemeris_type": 0,
        "meta_classification_type": "U",
        "meta_norad_cat_id": 66655,
        "meta_element_set_no": 999,
        "meta_rev_at_epoch": 113,
        "meta_bstar": 0.00065086,
        "meta_mean_motion_dot": 6.587e-05,
        "meta_mean_motion_ddot": 0,
        "tle_line1": "1 66655U 25274F   25338.23038250  .00006587  00000+0  65086-3 0  9995",
        "tle_line2": "2 66655  97.7363 265.5807 0007809 316.2710  43.7889 14.92233374  1134"
      },
      "geometry": {
        "type": "Point",
        "coordinates": [
          86.329196406502,
          -1.519243429138151
        ]
      }
    },
    {
      "type": "Feature",
      "properties": {
        "norad_id": 66656,
        "name": "2025-274G",
        "group": "last-30-days",
        "lat": -2.1359401684099018,
        "lon": 86.24601668839658,
        "alt_km": 596.4602808883756,
        "timestamp": "2025-12-05T04:52:14.143505+00:00",
        "meta_object_name": "2025-274G",
        "meta_object_id": "2025-274G",
        "meta_epoch": "2025-12-04T16:47:26.365344",
        "meta_mean_motion": 14.92198811,
        "meta_eccentricity": 0.001244,
        "meta_inclination": 97.7388,
        "meta_ra_of_asc_node": 266.0422,
        "meta_arg_of_pericenter": 287.6885,
        "meta_mean_anomaly": 72.2976,
        "meta_ephemeris_type": 0,
        "meta_classification_type": "U",
        "meta_norad_cat_id": 66656,
        "meta_element_set_no": 999,
        "meta_rev_at_epoch": 120,
        "meta_bstar": 0.00072902,
        "meta_mean_motion_dot": 7.385e-05,
        "meta_mean_motion_ddot": 0,
        "tle_line1": "1 66656U 25274G   25338.69961071  .00007385  00000+0  72902-3 0  9994",
        "tle_line2": "2 66656  97.7388 266.0422 0012440 287.6885  72.2976 14.92198811  1200"
      },
      "geometry": {
        "type": "Point",
        "coordinates": [
          86.24601668839658,
          -2.1359401684099018
        ]
      }
    },
    {
      "type": "Feature",
      "properties": {
        "norad_id": 66657,
        "name": "SPIRONE",
        "group": "last-30-days",
        "lat": -7.588286257379543,
        "lon": 85.50059934132548,
        "alt_km": 598.0847829117338,
        "timestamp": "2025-12-05T04:52:14.143514+00:00",
        "meta_object_name": "SPIRONE",
        "meta_object_id": "2025-274H",
        "meta_epoch": "2025-12-04T05:30:12.998304",
        "meta_mean_motion": 14.92372167,
        "meta_eccentricity": 0.0011087,
        "meta_inclination": 97.7384,
        "meta_ra_of_asc_node": 265.582,
        "meta_arg_of_pericenter": 308.6851,
        "meta_mean_anomaly": 51.3376,
        "meta_ephemeris_type": 0,
        "meta_classification_type": "U",
        "meta_norad_cat_id": 66657,
        "meta_element_set_no": 999,
        "meta_rev_at_epoch": 113,
        "meta_bstar": 0.00070024,
        "meta_mean_motion_dot": 7.12e-05,
        "meta_mean_motion_ddot": 0,
        "tle_line1": "1 66657U 25274H   25338.22931711  .00007120  00000+0  70024-3 0  9992",
        "tle_line2": "2 66657  97.7384 265.5820 0011087 308.6851  51.3376 14.92372167  1138"
      },
      "geometry": {
        "type": "Point",
        "coordinates": [
          85.50059934132548,
          -7.588286257379543
        ]
      }
    },
    {
      "type": "Feature",
      "properties": {
        "norad_id": 66658,
        "name": "2025-274J",
        "group": "last-30-days",
        "lat": -12.911246311360417,
        "lon": 84.75442790061373,
        "alt_km": 597.9988746235422,
        "timestamp": "2025-12-05T04:52:14.143523+00:00",
        "meta_object_name": "2025-274J",
        "meta_object_id": "2025-274J",
        "meta_epoch": "2025-12-04T07:05:28.546656",
        "meta_mean_motion": 14.92547645,
        "meta_eccentricity": 0.001164,
        "meta_inclination": 97.7385,
        "meta_ra_of_asc_node": 265.6489,
        "meta_arg_of_pericenter": 311.4389,
        "meta_mean_anomaly": 48.5829,
        "meta_ephemeris_type": 0,
        "meta_classification_type": "U",
        "meta_norad_cat_id": 66658,
        "meta_element_set_no": 999,
        "meta_rev_at_epoch": 114,
        "meta_bstar": 0.0006893,
        "meta_mean_motion_dot": 7.04e-05,
        "meta_mean_motion_ddot": 0,
        "tle_line1": "1 66658U 25274J   25338.29546929  .00007040  00000+0  68930-3 0  9997",
        "tle_line2": "2 66658  97.7385 265.6489 0011640 311.4389  48.5829 14.92547645  1142"
      },
      "geometry": {
        "type": "Point",
        "coordinates": [
          84.75442790061373,
          -12.911246311360417
        ]
      }
    },
    {
      "type": "Feature",
      "properties": {
        "norad_id": 66659,
        "name": "JACK K",
        "group": "last-30-days",
        "lat": -18.534971833503402,
        "lon": 83.93032640945212,
        "alt_km": 597.530806534819,
        "timestamp": "2025-12-05T04:52:14.143532+00:00",
        "meta_object_name": "JACK K",
        "meta_object_id": "2025-274K",
        "meta_epoch": "2025-12-04T08:40:38.250048",
        "meta_mean_motion": 14.92734551,
        "meta_eccentricity": 0.0012354,
        "meta_inclination": 97.7386,
        "meta_ra_of_asc_node": 265.7163,
        "meta_arg_of_pericenter": 312.2173,
        "meta_mean_anomaly": 47.7997,
        "meta_ephemeris_type": 0,
        "meta_classification_type": "U",
        "meta_norad_cat_id": 66659,
        "meta_element_set_no": 999,
        "meta_rev_at_epoch": 115,
        "meta_bstar": 0.00069302,
        "meta_mean_motion_dot": 7.113e-05,
        "meta_mean_motion_ddot": 0,
        "tle_line1": "1 66659U 25274K   25338.36155382  .00007113  00000+0  69302-3 0  9990",
        "tle_line2": "2 66659  97.7386 265.7163 0012354 312.2173  47.7997 14.92734551  1159"
      },
      "geometry": {
        "type": "Point",
        "coordinates": [
          83.93032640945212,
          -18.534971833503402
        ]
      }
    }
  ]
}